{"fetched_at":"2026-03-29T02:12:04Z","count":15717,"tles":[{"name":"STARLINK-36421","line1":"1 67464U 26008V   26087.37421080  .00037961  00000+0  13809-2 0  9999","line2":"2 67464  43.0018  99.3672 0001379 260.0100 100.0596 15.27603049 12438","category":"Starlink"}]}